QIANFAN-49              
1 62250U 24232P   25240.55737558  .00000054  00000+0  65035-4 0  9997
2 62250  88.9944  51.9516 0015539 136.6698 223.5678 13.50958198 53503
QIANFAN-50              
1 62251U 24232Q   25240.58215980  .00000062  00000+0  77851-4 0  9999
2 62251  88.9949  51.9514 0017161 138.3637 221.8824 13.50964760 53531
QIANFAN-51              
1 62252U 24232R   25240.56571230  .00000054  00000+0  65149-4 0  9999
2 62252  88.9943  51.9535 0014566 140.8792 219.3415 13.50967248 53526
QIANFAN-52              
1 62253U 24232S   25240.52044374  .00000053  00000+0  63780-4 0  9998
2 62253  88.9940  51.8357 0016745 134.6286 225.6234 13.50961736 53609
QIANFAN-53              
1 62254U 24232T   25240.57393423  .00000051  00000+0  59875-4 0  9994
2 62254  88.9947  51.9269 0015617 135.1481 225.0935 13.50965726 53571
QIANFAN-54              
1 62255U 24232U   25240.54101578  .00000044  00000+0  50152-4 0  9991
2 62255  88.9938  51.6178 0002885 139.9192 220.2172 13.50967827 85076
QIANFAN-55              
1 62785U 25016A   25240.56682086  .00000109  00000+0  15093-3 0  9996
2 62785  88.9807 114.1742 0015910 300.0631  59.8942 13.50961600 32855
QIANFAN-56              
1 62786U 25016B   25240.58343575  .00000098  00000+0  13314-3 0  9997
2 62786  88.9780 114.0379 0014632 303.1097  56.8649 13.50960580 32904
